OBJECT_NAME,OBJECT_ID,EPOCH,MEAN_MOTION,ECCENTRICITY,INCLINATION,RA_OF_ASC_NODE,ARG_OF_PERICENTER,MEAN_ANOMALY,EPHEMERIS_TYPE,CLASSIFICATION_TYPE,NORAD_CAT_ID,ELEMENT_SET_NO,REV_AT_EPOCH,BSTAR,MEAN_MOTION_DOT,MEAN_MOTION_DDOT
SES-21,2022-123B,2026-06-11T12:37:19.251264,1.00269986,.0000921,0.0262,32.5421,47.6721,237.9742,0,U,53961,999,715,0,.86E-6,0
GALAXY 33 (G-33),2022-128A,2026-06-11T17:44:44.439936,1.00270185,.0001667,0.0068,328.0284,116.5773,308.6720,0,U,54026,999,1368,0,.96E-6,0
GALAXY 34 (G-34),2022-128B,2026-06-11T16:03:13.549248,1.00273054,.0001576,0.0219,345.5528,108.0855,278.1799,0,U,54027,999,1385,0,0,0
ANGOSAT 2,2022-131A,2026-06-10T13:24:03.855744,1.00272183,.00012665,0.0349,88.7475,27.5902,6.5973,0,U,54033,999,1341,0,.153E-5,0
EUTELSAT HOTBIRD 13F,2022-134A,2026-06-11T16:43:47.159040,1.00271003,.0001982,0.0454,293.3112,62.7785,167.9018,0,U,54048,999,1332,0,.104E-5,0
LDPE-2,2022-144A,2026-06-11T14:59:47.781312,1.00529787,.0001834,5.5990,63.6947,103.0246,155.5139,0,U,54219,999,1178,0,.144E-5,0
EUTELSAT HOTBIRD 13G,2022-146A,2026-06-11T16:43:47.159040,1.00271465,.0002017,0.0468,229.2799,315.6387,339.0678,0,U,54225,999,741,0,.104E-5,0
ZHONGXING-19,2022-148A,2026-06-11T19:09:13.609152,1.00271311,.0002277,0.0154,307.5630,160.0728,243.0019,0,U,54230,999,1332,0,-.65E-6,0
GALAXY 31 (G-31),2022-153A,2026-06-11T16:05:28.334112,1.00270115,.000113,0.0180,295.7377,136.8388,307.8081,0,U,54243,999,707,0,.3E-6,0
GALAXY 32 (G-32),2022-153B,2026-06-11T12:48:48.151296,1.00271889,.0002088,0.0099,2.4088,31.9937,326.6811,0,U,54244,999,1308,0,-.158E-5,0
EUTELSAT 10B,2022-157A,2026-06-11T16:42:54.741888,1.00278962,.0001104,0.0628,104.1683,351.0436,65.5811,0,U,54259,999,1297,0,.86E-6,0
GALAXY 35 (G-35),2022-170A,2026-06-11T14:30:46.708128,1.00270834,.0001889,0.0155,296.8943,146.7176,300.9339,0,U,54741,999,1283,0,-.145E-5,0
GALAXY 36 (G-36),2022-170B,2026-06-11T14:32:01.590144,1.00271833,.0002574,0.0360,125.6767,316.8090,306.4760,0,U,54742,999,1271,0,-.169E-5,0
METEOSAT-12 (MTG-I1),2022-170C,2026-06-11T16:39:55.029888,1.00271721,.0003235,0.7318,21.9787,72.0387,55.5733,0,U,54743,999,1292,0,.8E-7,0
SHIJIAN-23 (SJ-23),2023-002A,2026-06-11T16:23:34.344096,1.00088953,.0003806,3.7026,78.3803,272.7782,306.5032,0,U,55131,999,1245,0,-.206E-5,0
APSTAR-6E,2023-005A,2026-06-10T15:56:29.693184,1.00270607,.00010438,0.0249,253.3859,305.6629,73.1073,0,U,55239,999,1862,0,-.3E-5,0
USA 342,2023-008A,2026-06-10T06:33:40.001760,1.00272706,.0000235,0.0036,23.3608,273.9776,83.6406,0,U,55263,999,1244,0,0,0
LDPE-3A,2023-008B,2026-06-11T12:50:10.519008,0.99145364,.0001113,2.3322,81.7311,60.8476,223.7376,0,U,55264,999,1175,0,-.37E-6,0
ELEKTRO-L 4,2023-016A,2026-06-10T19:40:04.838016,1.00272872,.00008229,0.0721,174.0756,1.1447,184.7922,0,U,55506,999,1227,0,-.4E-6,0
AMAZONAS NEXUS,2023-017A,2026-06-11T12:57:17.335872,1.00266544,.0005034,0.0377,34.4009,30.2444,328.5655,0,U,55508,999,698,0,-.266E-5,0
ZHONGXING-26,2023-023A,2026-06-11T21:27:22.819104,1.00273240,.0003326,0.0694,71.6536,13.4112,262.0984,0,U,55686,999,1217,0,-.337E-5,0
LUCH-5X (OLYMP-K 2),2023-031A,2026-06-11T12:07:38.695008,1.00272154,.0000733,0.0284,60.7738,170.3710,272.5925,0,U,55841,999,1188,0,.5E-6,0
GAOFEN-13 02,2023-036A,2026-06-11T15:12:38.673216,1.00271816,.0004162,1.0195,0.3709,337.4271,298.6420,0,U,55912,999,1203,0,-.202E-5,0
SES-18,2023-038A,2026-06-11T14:28:01.971840,1.00271173,.0000203,0.0254,286.0135,24.3236,63.5229,0,U,55970,999,1204,0,-.84E-6,0
SES-19,2023-038B,2026-06-11T16:01:36.204096,1.00272368,.0001537,0.0131,322.3574,122.9650,280.1961,0,U,55971,999,1203,0,.104E-5,0
INTELSAT 40E (IS-40E),2023-052A,2026-06-11T12:48:48.151296,1.00272650,.0002005,0.0184,11.4493,112.2014,237.4225,0,U,56174,999,1176,0,0,0
VIASAT-3 F1,2023-060A,2026-06-11T14:32:01.590144,1.00276196,.0001051,0.0241,328.9825,116.9734,303.0262,0,U,56370,999,1137,0,0,0
ARCTURUS,2023-060B,2026-06-11T17:00:41.164128,1.00272198,.0002374,2.7621,80.0143,44.8855,102.8016,0,U,56371,999,1140,0,-.47E-6,0
GS-1,2023-060C,2026-06-08T15:31:07.690656,1.00277054,.00041256,2.7050,79.9310,279.9950,219.1575,0,U,56372,999,745,0,-.208E-5,0
BEIDOU-3 G4,2023-066A,2026-06-10T08:49:24.195360,1.00265779,.00043973,0.4953,329.6081,171.1303,30.2733,0,U,56564,999,1132,0,-.265E-5,0
ARABSAT-7B (BADR-8),2023-075A,2026-06-11T13:22:05.899872,1.00270990,.0004683,0.0752,27.3353,354.7630,104.3415,0,U,56757,999,1106,0,.161E-5,0
NVS-01 (IRNSS-1J),2023-076A,2026-06-11T17:17:02.097024,1.00267511,.0003114,2.1798,244.6072,38.0522,6.2142,0,U,56759,999,1106,0,-.317E-5,0
